{
  "type": "FeatureCollection",
  "features": [
    {
      "type": "Feature",
      "properties": {
        "norad_id": 43647,
        "name": "BEIDOU-3 M16 (C35)",
        "group": "gnss",
        "lat": -51.61280756288884,
        "lon": -119.1461634771929,
        "alt_km": 21535.406363723592,
        "timestamp": "2025-12-23T20:42:37.318222+00:00",
        "meta_object_name": "BEIDOU-3 M16 (C35)",
        "meta_object_id": "2018-078A",
        "meta_epoch": "2025-12-22T21:37:04.499328",
        "meta_mean_motion": 1.86232328,
        "meta_eccentricity": 0.00074196,
        "meta_inclination": 54.2525,
        "meta_ra_of_asc_node": 306.1662,
        "meta_arg_of_pericenter": 20.3198,
        "meta_mean_anomaly": 339.7131,
        "meta_ephemeris_type": 0,
        "meta_classification_type": "U",
        "meta_norad_cat_id": 43647,
        "meta_element_set_no": 999,
        "meta_rev_at_epoch": 4887,
        "meta_bstar": 0,
        "meta_mean_motion_dot": -5.5e-07,
        "meta_mean_motion_ddot": 0,
        "tle_line1": "1 43647U 18078A   25356.90074652 -.00000055  00000+0  00000+0 0  9991",
        "tle_line2": "2 43647  54.2525 306.1662 0007419  20.3198 339.7131  1.86232328 48876"
      },
      "geometry": {
        "type": "Point",
        "coordinates": [
          -119.1461634771929,
          -51.61280756288884
        ]
      }
    },
    {
      "type": "Feature",
      "properties": {
        "norad_id": 43648,
        "name": "BEIDOU-3 M15 (C34)",
        "group": "gnss",
        "lat": -14.947037031338633,
        "lon": 137.19043902404795,
        "alt_km": 21541.36384521463,
        "timestamp": "2025-12-23T20:42:37.318233+00:00",
        "meta_object_name": "BEIDOU-3 M15 (C34)",
        "meta_object_id": "2018-078B",
        "meta_epoch": "2025-12-23T00:43:09.285312",
        "meta_mean_motion": 1.86232355,
        "meta_eccentricity": 0.00040598,
        "meta_inclination": 54.2483,
        "meta_ra_of_asc_node": 306.1625,
        "meta_arg_of_pericenter": 19.7636,
        "meta_mean_anomaly": 340.2561,
        "meta_ephemeris_type": 0,
        "meta_classification_type": "U",
        "meta_norad_cat_id": 43648,
        "meta_element_set_no": 999,
        "meta_rev_at_epoch": 4889,
        "meta_bstar": 0,
        "meta_mean_motion_dot": -5.4e-07,
        "meta_mean_motion_ddot": 0,
        "tle_line1": "1 43648U 18078B   25357.02996858 -.00000054  00000+0  00000+0 0  9996",
        "tle_line2": "2 43648  54.2483 306.1625 0004059  19.7636 340.2561  1.86232355 48891"
      },
      "geometry": {
        "type": "Point",
        "coordinates": [
          137.19043902404795,
          -14.947037031338633
        ]
      }
    },
    {
      "type": "Feature",
      "properties": {
        "norad_id": 43683,
        "name": "BEIDOU-3 G1 (C59)",
        "group": "gnss",
        "lat": 2.6039762013540098,
        "lon": -176.72661625310926,
        "alt_km": 35782.009950564985,
        "timestamp": "2025-12-23T20:42:37.318244+00:00",
        "meta_object_name": "BEIDOU-3 G1 (C59)",
        "meta_object_id": "2018-085A",
        "meta_epoch": "2025-12-23T06:56:59.375904",
        "meta_mean_motion": 1.00267378,
        "meta_eccentricity": 0.00014878,
        "meta_inclination": 2.6327,
        "meta_ra_of_asc_node": 102.6553,
        "meta_arg_of_pericenter": 44.3592,
        "meta_mean_anomaly": 189.2969,
        "meta_ephemeris_type": 0,
        "meta_classification_type": "U",
        "meta_norad_cat_id": 43683,
        "meta_element_set_no": 999,
        "meta_rev_at_epoch": 2629,
        "meta_bstar": 0,
        "meta_mean_motion_dot": -2.59e-06,
        "meta_mean_motion_ddot": 0,
        "tle_line1": "1 43683U 18085A   25357.28957611 -.00000259  00000+0  00000+0 0  9992",
        "tle_line2": "2 43683   2.6327 102.6553 0001487  44.3592 189.2969  1.00267378 26292"
      },
      "geometry": {
        "type": "Point",
        "coordinates": [
          -176.72661625310926,
          2.6039762013540098
        ]
      }
    },
    {
      "type": "Feature",
      "properties": {
        "norad_id": 43687,
        "name": "COSMOS 2529 (757)",
        "group": "gnss",
        "lat": 34.09006516600054,
        "lon": -0.5218821601401806,
        "alt_km": 19132.59679642058,
        "timestamp": "2025-12-23T20:42:37.318260+00:00",
        "meta_object_name": "COSMOS 2529 (757)",
        "meta_object_id": "2018-086A",
        "meta_epoch": "2025-12-21T19:13:53.194368",
        "meta_mean_motion": 2.13102139,
        "meta_eccentricity": 0.00069117,
        "meta_inclination": 64.2926,
        "meta_ra_of_asc_node": 198.5821,
        "meta_arg_of_pericenter": 253.6836,
        "meta_mean_anomaly": 106.3102,
        "meta_ephemeris_type": 0,
        "meta_classification_type": "U",
        "meta_norad_cat_id": 43687,
        "meta_element_set_no": 999,
        "meta_rev_at_epoch": 5550,
        "meta_bstar": 0,
        "meta_mean_motion_dot": 9.6e-07,
        "meta_mean_motion_ddot": 0,
        "tle_line1": "1 43687U 18086A   25355.80131012  .00000096  00000+0  00000+0 0  9990",
        "tle_line2": "2 43687  64.2926 198.5821 0006911 253.6836 106.3102  2.13102139 55503"
      },
      "geometry": {
        "type": "Point",
        "coordinates": [
          -0.5218821601401806,
          34.09006516600054
        ]
      }
    },
    {
      "type": "Feature",
      "properties": {
        "norad_id": 43706,
        "name": "BEIDOU-3 M17 (C36)",
        "group": "gnss",
        "lat": 54.087427452435264,
        "lon": -78.16980050782044,
        "alt_km": 21535.74231964594,
        "timestamp": "2025-12-23T20:42:37.318272+00:00",
        "meta_object_name": "BEIDOU-3 M17 (C36)",
        "meta_object_id": "2018-093A",
        "meta_epoch": "2025-12-22T11:03:17.644896",
        "meta_mean_motion": 1.86228432,
        "meta_eccentricity": 0.00060427,
        "meta_inclination": 54.173,
        "meta_ra_of_asc_node": 188.2918,
        "meta_arg_of_pericenter": 307.405,
        "meta_mean_anomaly": 284.4943,
        "meta_ephemeris_type": 0,
        "meta_classification_type": "U",
        "meta_norad_cat_id": 43706,
        "meta_element_set_no": 999,
        "meta_rev_at_epoch": 4824,
        "meta_bstar": 0,
        "meta_mean_motion_dot": 9.4e-07,
        "meta_mean_motion_ddot": 0,
        "tle_line1": "1 43706U 18093A   25356.46062089  .00000094  00000+0  00000+0 0  9998",
        "tle_line2": "2 43706  54.1730 188.2918 0006042 307.4050 284.4943  1.86228432 48248"
      },
      "geometry": {
        "type": "Point",
        "coordinates": [
          -78.16980050782044,
          54.087427452435264
        ]
      }
    },
    {
      "type": "Feature",
      "properties": {
        "norad_id": 43707,
        "name": "BEIDOU-3 M18 (C37)",
        "group": "gnss",
        "lat": -3.9620142055703806,
        "lon": 11.108827868532902,
        "alt_km": 21546.25947203929,
        "timestamp": "2025-12-23T20:42:37.318285+00:00",
        "meta_object_name": "BEIDOU-3 M18 (C37)",
        "meta_object_id": "2018-093B",
        "meta_epoch": "2025-12-20T21:39:28.587744",
        "meta_mean_motion": 1.86226757,
        "meta_eccentricity": 0.00062168,
        "meta_inclination": 54.1741,
        "meta_ra_of_asc_node": 188.3365,
        "meta_arg_of_pericenter": 353.7926,
        "meta_mean_anomaly": 6.2524,
        "meta_ephemeris_type": 0,
        "meta_classification_type": "U",
        "meta_norad_cat_id": 43707,
        "meta_element_set_no": 999,
        "meta_rev_at_epoch": 4821,
        "meta_bstar": 0,
        "meta_mean_motion_dot": 9.5e-07,
        "meta_mean_motion_ddot": 0,
        "tle_line1": "1 43707U 18093B   25354.90241421  .00000095  00000+0  00000+0 0  9996",
        "tle_line2": "2 43707  54.1741 188.3365 0006216 353.7926   6.2524  1.86226757 48217"
      },
      "geometry": {
        "type": "Point",
        "coordinates": [
          11.108827868532902,
          -3.9620142055703806
        ]
      }
    },
    {
      "type": "Feature",
      "properties": {
        "norad_id": 43873,
        "name": "GPS BIII-1  (PRN 04)",
        "group": "gnss",
        "lat": -52.815056618685155,
        "lon": -16.362792606638905,
        "alt_km": 20137.844449980068,
        "timestamp": "2025-12-23T20:42:37.318299+00:00",
        "meta_object_name": "GPS BIII-1  (PRN 04)",
        "meta_object_id": "2018-109A",
        "meta_epoch": "2025-12-21T18:06:33.031872",
        "meta_mean_motion": 2.00553985,
        "meta_eccentricity": 0.00375944,
        "meta_inclination": 55.5715,
        "meta_ra_of_asc_node": 99.1915,
        "meta_arg_of_pericenter": 195.3805,
        "meta_mean_anomaly": 336.8667,
        "meta_ephemeris_type": 0,
        "meta_classification_type": "U",
        "meta_norad_cat_id": 43873,
        "meta_element_set_no": 999,
        "meta_rev_at_epoch": 5151,
        "meta_bstar": 0,
        "meta_mean_motion_dot": -1e-08,
        "meta_mean_motion_ddot": 0,
        "tle_line1": "1 43873U 18109A   25355.75454898 -.00000001  00000+0  00000+0 0  9994",
        "tle_line2": "2 43873  55.5715  99.1915 0037594 195.3805 336.8667  2.00553985 51516"
      },
      "geometry": {
        "type": "Point",
        "coordinates": [
          -16.362792606638905,
          -52.815056618685155
        ]
      }
    }
  ]
}